MEAN_MOTION;ECCENTRICITY;INCLINATION;RA_OF_ASC_NODE;ARG_OF_PERICENTER;MEAN_ANOMALY;BSTAR;MEAN_MOTION_DOT;MEAN_MOTION_DDOT;TYPE
2.00563943;0.0191342;54.6546;71.5857;259.1815;280.7002;0;1.0E-7;0;Navigation
2.00563943;0.0191342;54.6546;71.5857;259.1815;280.7002;0;1.0E-7;0;Navigation
2.00563856;0.0191356;54.6553;71.5443;259.205;292.4176;0;9.0E-8;0;Navigation
2.00563813;0.0191363;54.6557;71.5224;259.2171;318.4255;0;7.0E-8;0;Navigation
2.00563779;0.0191371;54.6561;71.505;259.2258;266.3073;0;5.0E-8;0;Navigation
2.00563739;0.019138;54.6564;71.4835;259.2379;286.2455;0;2.0E-8;0;Navigation
2.005637;0.0191387;54.6568;71.4616;259.2497;312.2218;0;-2.0E-8;0;Navigation
2.00563685;0.0191376;54.657;71.4531;259.2547;101.8928;0;-4.0E-8;0;Navigation
2.00563685;0.0191376;54.657;71.4531;259.2547;101.8928;0;-4.0E-8;0;Navigation
2.00563575;0.0191404;54.6582;71.3834;259.2934;252.9833;0;-1.9E-7;0;Navigation
2.00563556;0.0191402;54.6585;71.3705;259.2987;121.0447;0;-2.2E-7;0;Navigation
2.00563544;0.019141;54.6586;71.3617;259.3051;277.6739;0;-2.4E-7;0;Navigation
2.00563516;0.0191415;54.659;71.3424;259.3152;258.0656;0;-2.8E-7;0;Navigation
2.00563488;0.0191422;54.6595;71.3207;259.3274;281.9939;0;-3.2E-7;0;Navigation
2.00563467;0.0191429;54.6597;71.3035;259.3352;224.6535;0;-3.5E-7;0;Navigation
2.00563426;0.0191433;54.6603;71.2701;259.3527;96.4347;0;-3.8E-7;0;Navigation
2.00563378;0.0191445;54.6611;71.229;259.3748;102.1389;0;-3.9E-7;0;Navigation
2.00563364;0.0191452;54.6614;71.2161;259.3835;331.2495;0;-3.8E-7;0;Navigation
2.00563364;0.0191452;54.6614;71.2161;259.3835;331.2495;0;-3.8E-7;0;Navigation
2.00563364;0.0191452;54.6614;71.2161;259.3835;331.2495;0;-3.8E-7;0;Navigation
2.00563323;0.0191462;54.662;71.1796;259.4008;255.8947;0;-3.6E-7;0;Navigation
2.00563308;0.0191456;54.6622;71.1674;259.408;111.9138;0;-3.5E-7;0;Navigation
2.00563276;0.0191465;54.6628;71.1361;259.4246;306.0755;0;-3.1E-7;0;Navigation
2.00563263;0.0191458;54.663;71.1265;259.4296;115.3233;0;-3.0E-7;0;Navigation
2.00563227;0.0191465;54.6636;71.0949;259.4469;315.1935;0;-2.6E-7;0;Navigation
2.00563203;0.0191469;54.6639;71.0754;259.4573;300.8571;0;-2.3E-7;0;Navigation
2.00563174;0.0191473;54.6643;71.0534;259.4681;330.0596;0;-2.1E-7;0;Navigation
2.00563162;0.0191467;54.6645;71.0456;259.4713;106.7661;0;-2.0E-7;0;Navigation
2.00563118;0.0191481;54.6651;71.0121;259.4886;339.3351;0;-1.7E-7;0;Navigation
2.00563095;0.0191476;54.6653;70.9973;259.4948;241.9559;0;-1.7E-7;0;Navigation
2.0056306;0.0191479;54.6657;70.9755;259.5064;267.3786;0;-1.6E-7;0;Navigation
2.00563025;0.0191482;54.6661;70.9544;259.5179;281.0333;0;-1.5E-7;0;Navigation
2.00562986;0.0191486;54.6665;70.9322;259.5301;315.0316;0;-1.5E-7;0;Navigation
2.00562933;0.0191476;54.667;70.9039;259.5447;95.4941;0;-1.5E-7;0;Navigation
2.00562851;0.0191482;54.6677;70.863;259.5662;101.2014;0;-1.6E-7;0;Navigation
2.00562851;0.0191482;54.6677;70.863;259.5662;101.2014;0;-1.6E-7;0;Navigation
2.00562807;0.0191484;54.6681;70.8418;259.5772;116.7348;0;-1.6E-7;0;Navigation
2.00562747;0.0191497;54.6685;70.8132;259.5925;262.22;0;-1.6E-7;0;Navigation
2.00562716;0.0191486;54.6688;70.8005;259.599;128.5328;0;-1.7E-7;0;Navigation
2.00562641;0.0191494;54.6694;70.7672;259.6194;358.1547;0;-1.6E-7;0;Navigation
2.00562598;0.0191499;54.6697;70.7478;259.6285;340.5108;0;-1.6E-7;0;Navigation
2.00562552;0.0191502;54.67;70.7284;259.6378;324.7795;0;-1.5E-7;0;Navigation
2.00562523;0.0191498;54.6703;70.7165;259.6406;176.0777;0;-1.4E-7;0;Navigation
2.00562459;0.0191506;54.6707;70.6898;259.6564;288.8454;0;-1.3E-7;0;Navigation
2.00562433;0.0191494;54.6709;70.6796;259.6607;108.7983;0;-1.2E-7;0;Navigation
2.00562352;0.0191511;54.6714;70.6461;259.6791;342.5567;0;-1.0E-7;0;Navigation
2.00562335;0.0191503;54.6716;70.6392;259.6803;105.1295;0;-9.0E-8;0;Navigation
2.00562262;0.019152;54.6721;70.6094;259.6958;271.8185;0;-7.0E-8;0;Navigation
2.00562215;0.0191521;54.6724;70.5898;259.7054;258.9573;0;-5.0E-8;0;Navigation
2.0056209;0.0191511;54.6733;70.5381;259.7318;94.5749;0;-1.0E-8;0;Navigation
2.00562065;0.0191527;54.6734;70.5275;259.7381;281.7301;0;0;0;Navigation
2.00561995;0.0191519;54.6739;70.4971;259.7521;100.2684;0;1.0E-8;0;Navigation
2.00561927;0.0191533;54.6744;70.4664;259.7683;283.6487;0;1.0E-8;0;Navigation
2.00561881;0.019153;54.6748;70.4446;259.7798;307.9833;0;0;0;Navigation
2.00561791;0.0191529;54.6756;70.4008;259.8007;3.3574;0;-4.0E-8;0;Navigation
2.00561758;0.0191533;54.6759;70.3841;259.8082;298.8142;0;-6.0E-8;0;Navigation
2.00561721;0.0191534;54.6762;70.3645;259.8169;285.4824;0;-1.0E-7;0;Navigation
2.00561679;0.0191532;54.6766;70.34;259.8286;358.2269;0;-1.5E-7;0;Navigation
2.00561679;0.0191532;54.6766;70.34;259.8286;358.2269;0;-1.5E-7;0;Navigation
2.00561569;0.019153;54.6777;70.2747;259.8564;74.0486;0;-3.0E-7;0;Navigation
2.00561517;0.0191534;54.6784;70.2382;259.8737;359.9482;0;-3.9E-7;0;Navigation
2.00561472;0.0191536;54.6789;70.2066;259.8857;198.1736;0;-4.5E-7;0;Navigation
2.00561436;0.0191538;54.6794;70.1774;259.9003;355.0477;0;-5.0E-7;0;Navigation
2.00561417;0.0191541;54.6797;70.1626;259.906;257.9294;0;-5.1E-7;0;Navigation
2.00561371;0.0191541;54.6803;70.1241;259.9229;219.6956;0;-5.4E-7;0;Navigation
2.00561357;0.0191535;54.6805;70.1118;259.9295;75.8665;0;-5.4E-7;0;Navigation
2.00561347;0.019154;54.6807;70.1019;259.9333;251.657;0;-5.4E-7;0;Navigation
2.00561317;0.0191537;54.6812;70.0755;259.9462;0.396;0;-5.3E-7;0;Navigation
2.00561307;0.0191535;54.6813;70.0677;259.9481;138.2641;0;-5.2E-7;0;Navigation
2.00561276;0.0191537;54.6818;70.0369;259.9628;323.4533;0;-5.0E-7;0;Navigation
2.00561251;0.0191533;54.6822;70.015;259.9724;350.5841;0;-4.7E-7;0;Navigation
2.00561251;0.0191533;54.6822;70.015;259.9724;350.5841;0;-4.7E-7;0;Navigation
2.00561233;0.0191535;54.6825;69.9984;259.9786;284.5758;0;-4.6E-7;0;Navigation
2.00561202;0.0191527;54.6829;69.9736;259.9903;3.7415;0;-4.3E-7;0;Navigation
2.00561154;0.0191524;54.6835;69.9352;260.0058;324.5712;0;-3.9E-7;0;Navigation
2.00561129;0.0191522;54.6838;69.9174;260.0123;278.901;0;-3.8E-7;0;Navigation
2.00561129;0.0191522;54.6838;69.9174;260.0123;278.901;0;-3.8E-7;0;Navigation
2.0056104;0.0191522;54.6848;69.8568;260.0378;272.194;0;-3.6E-7;0;Navigation
2.00560968;0.0191522;54.6854;69.8141;260.0571;309.5996;0;-3.6E-7;0;Navigation
2.00560927;0.019152;54.6858;69.7919;260.0674;341.5296;0;-3.7E-7;0;Navigation
2.00560849;0.0191519;54.6865;69.7509;260.0859;347.7898;0;-3.8E-7;0;Navigation
2.00560828;0.0191511;54.6866;69.7414;260.0872;157.7555;0;-3.9E-7;0;Navigation
2.0056077;0.0191515;54.6871;69.7124;260.1025;311.1906;0;-3.9E-7;0;Navigation
2.00560722;0.0191509;54.6874;69.69;260.1133;347.3821;0;-4.0E-7;0;Navigation
2.00560673;0.0191502;54.6878;69.668;260.1233;17.3637;0;-4.0E-7;0;Navigation
2.00560673;0.0191502;54.6878;69.668;260.1233;17.3637;0;-4.0E-7;0;Navigation
2.00560581;0.0191496;54.6885;69.6271;260.1407;22.8666;0;-3.9E-7;0;Navigation
2.00560536;0.0191496;54.6888;69.6078;260.1489;4.5349;0;-3.8E-7;0;Navigation
2.00560489;0.0191496;54.6891;69.5883;260.157;351.4785;0;-3.7E-7;0;Navigation
2.00560437;0.0191491;54.6895;69.5663;260.1662;20.4732;0;-3.6E-7;0;Navigation
2.00560437;0.0191491;54.6895;69.5663;260.1662;20.4732;0;-3.6E-7;0;Navigation
2.00560378;0.0191486;54.6898;69.5424;260.1744;84.2255;0;-3.4E-7;0;Navigation
2.00560301;0.0191498;54.6903;69.5105;260.1878;288.6194;0;-3.2E-7;0;Navigation
2.00560271;0.0191484;54.6905;69.4986;260.1907;140.5112;0;-3.1E-7;0;Navigation
2.00560244;0.0191487;54.6907;69.4865;260.199;354.1374;0;-3.0E-7;0;Navigation
2.00560197;0.0191489;54.691;69.4672;260.2069;336.4058;0;-2.8E-7;0;Navigation
2.00560152;0.0191488;54.6913;69.4482;260.2143;312.9341;0;-2.7E-7;0;Navigation
2.00560099;0.0191483;54.6917;69.4258;260.2241;348.7987;0;-2.5E-7;0;Navigation
2.00560048;0.0191481;54.692;69.404;260.2332;14.922;0;-2.4E-7;0;Navigation
2.00559992;0.0191463;54.6924;69.3808;260.2403;65.3965;0;-2.3E-7;0;Navigation
2.00559916;0.0191466;54.6929;69.3462;260.2553;318.2537;0;-2.3E-7;0;Navigation
2.0055991;0.0191461;54.693;69.3433;260.2565;8.8888;0;-2.3E-7;0;Navigation
2.0055991;0.0191461;54.693;69.3433;260.2565;8.8888;0;-2.3E-7;0;Navigation
2.00559748;0.0191446;54.6942;69.2635;260.2871;342.1487;0;-3.2E-7;0;Navigation
2.00559705;0.0191433;54.6946;69.2414;260.2949;11.7914;0;-3.6E-7;0;Navigation
2.00559705;0.0191433;54.6946;69.2414;260.2949;11.7914;0;-3.6E-7;0;Navigation
2.00559671;0.0191432;54.6949;69.2223;260.3019;350.0207;0;-4.0E-7;0;Navigation
2.00559671;0.0191432;54.6949;69.2223;260.3019;350.0207;0;-4.0E-7;0;Navigation
2.005596;0.0191424;54.6955;69.1806;260.3162;8.0749;0;-5.0E-7;0;Navigation
2.00559575;0.0191431;54.6958;69.1655;260.3207;275.7349;0;-5.4E-7;0;Navigation
2.00559541;0.0191455;54.6962;69.1393;260.3331;17.9816;0;-6.0E-7;0;Navigation
2.00559512;0.0191436;54.6965;69.1201;260.3373;358.9743;0;-6.4E-7;0;Navigation
2.00559461;0.0191433;54.6971;69.0838;260.3487;282.0288;0;-7.1E-7;0;Navigation
2.00559461;0.0191433;54.6971;69.0838;260.3487;282.0288;0;-7.1E-7;0;Navigation
2.00559368;0.0191435;54.6983;69.0096;260.3748;154.0832;0;-7.8E-7;0;Navigation
2.00559368;0.0191435;54.6983;69.0096;260.3748;154.0832;0;-7.8E-7;0;Navigation
2.00559311;0.0191431;54.6991;68.9549;260.3958;42.6807;0;-7.7E-7;0;Navigation
2.00559272;0.0191428;54.6997;68.9192;260.408;314.6807;0;-7.4E-7;0;Navigation
2.00559248;0.0191418;54.7001;68.8971;260.4151;345.5182;0;-7.2E-7;0;Navigation
2.00559239;0.0191418;54.7002;68.8908;260.4178;96.8455;0;-7.1E-7;0;Navigation
2.005592;0.0191414;54.7007;68.8556;260.4304;1.3227;0;-6.7E-7;0;Navigation
2.00559177;0.0191411;54.701;68.8366;260.4361;337.3101;0;-6.6E-7;0;Navigation
2.00559152;0.0191408;54.7013;68.8173;260.4422;319.8244;0;-6.4E-7;0;Navigation
2.00559117;0.0191405;54.7017;68.7924;260.4529;40.6845;0;-6.3E-7;0;Navigation
2.00559096;0.0191403;54.7019;68.776;260.4562;329.7523;0;-6.2E-7;0;Navigation
2.0055907;0.0191401;54.7022;68.7584;260.4609;282.4155;0;-6.2E-7;0;Navigation
2.00559028;0.0191392;54.7026;68.7317;260.4714;35.163;0;-6.1E-7;0;Navigation
2.00559007;0.0191397;54.7028;68.7178;260.4751;281.029;0;-6.2E-7;0;Navigation
